IRIDIUM 106             
1 41917U 17003A   26196.21220233  .00000049  00000+0  10396-4 0  9997
2 41917  86.3942  76.8381 0002299  94.3031 265.8427 14.34217143497229
IRIDIUM 103             
1 41918U 17003B   26196.19951612  .00000089  00000+0  24795-4 0  9999
2 41918  86.3938  76.7428 0001959  83.9328 276.2091 14.34218113497244
IRIDIUM 109             
1 41919U 17003C   26196.13609052 -.00000018  00000+0 -13553-4 0  9996
2 41919  86.3940  76.8291 0002066  84.0755 276.0676 14.34216847497208
IRIDIUM 102             
1 41920U 17003D   26196.73229432  .00000150  00000+0  46594-4 0  9990
2 41920  86.3940  76.5031 0002255  85.2060 274.9393 14.34218711497374
IRIDIUM 105             
1 41921U 17003E   26196.55135331  .00000137  00000+0  41925-4 0  9993
2 41921  86.3945  45.0058 0001987  79.7228 280.4192 14.34215512499204
IRIDIUM 104             
1 41922U 17003F   26196.74497865  .00000126  00000+0  37850-4 0  9998
2 41922  86.3941  76.5406 0001990  79.7386 280.4034 14.34218275497365
IRIDIUM 114             
1 41923U 17003G   26196.75132310 -.00000021  00000+0 -14500-4 0  9994
2 41923  86.3941  76.5209 0001930  82.8735 277.2680 14.34216882497345
IRIDIUM 108             
1 41924U 17003H   26196.50053782  .00000092  00000+0  25647-4 0  9993
2 41924  86.3934  44.9157 0002224  86.1887 273.9563 14.34217861499164
IRIDIUM 112             
1 41925U 17003J   26196.73863638 -.00000018  00000+0 -13528-4 0  9993
2 41925  86.3937  76.3668 0002081  84.1897 275.9536 14.34216562497363
IRIDIUM 111             
1 41926U 17003K   26196.16780372  .00000114  00000+0  33496-4 0  9995
2 41926  86.3939  76.6772 0002147  85.9219 274.2222 14.34218131497262
IRIDIUM 113             
1 42803U 17039A   26196.77568463  .00000032  00000+0  43418-5 0  9996
2 42803  86.3992 310.2302 0002122  91.4310 268.7129 14.34217372475287
IRIDIUM 123             
1 42804U 17039B   26196.81716270  .00000021  00000+0  28547-6 0  9998
2 42804  86.3993 341.6689 0002143  96.9460 263.1980 14.34217429474055
IRIDIUM 120             
1 42805U 17039C   26196.83911157  .00000093  00000+0  26205-4 0  9998
2 42805  86.3979 309.9825 0002354  97.9577 262.1886 14.34218225475288
IRIDIUM 115             
1 42806U 17039D   26196.82155417  .00000173  00000+0  45376-4 0  9996
2 42806  86.4517 310.1224 0002264  99.7791 260.3665 14.43277775478398
IRIDIUM 118             
1 42807U 17039E   26196.77910888  .00000009  00000+0 -38178-5 0  9994
2 42807  86.3986 341.6829 0002058  90.5661 269.5770 14.34217282474047
IRIDIUM 117             
1 42808U 17039F   26196.79813509  .00000069  00000+0  17400-4 0  9998
2 42808  86.3992 341.6320 0002180  94.5379 265.6066 14.34217457474079
IRIDIUM 126             
1 42809U 17039G   26196.68396910  .00000033  00000+0  48937-5 0  9990
2 42809  86.3993 341.7315 0002095  90.8646 269.2790 14.34217743474035
IRIDIUM 124             
1 42810U 17039H   26196.75532233  .00000187  00000+0  49524-4 0  9992
2 42810  86.4482 278.4146 0002324  97.0036 263.1429 14.43286373479230
IRIDIUM 128             
1 42811U 17039J   26196.74447884  .00000037  00000+0  60625-5 0  9999
2 42811  86.3966  13.2071 0002268  93.9100 266.2355 14.34216809474079
IRIDIUM 121             
1 42812U 17039K   26196.84253411  .00000038  00000+0  64241-5 0  9991
2 42812  86.3992 341.6933 0002228  92.9260 267.2191 14.34217728473930
IRIDIUM 133             
1 42955U 17061A   26196.77618976  .00000043  00000+0  81238-5 0  9998
2 42955  86.3968  13.3122 0002201  90.9935 269.1513 14.34217190458870
IRIDIUM 100             
1 42956U 17061B   26196.56054302  .00000032  00000+0  44214-5 0  9994
2 42956  86.3965  13.3204 0002216  89.9312 270.2137 14.34217205458841
IRIDIUM 122             
1 42957U 17061C   26196.73813115  .00000034  00000+0  49133-5 0  9996
2 42957  86.3967  13.2465 0002130  91.6667 268.4773 14.34217134458879
IRIDIUM 129             
1 42958U 17061D   26196.55419714  .00000030  00000+0  37101-5 0  9992
2 42958  86.3966  13.3907 0002139  83.8016 276.3423 14.34217025458869
IRIDIUM 119             
1 42959U 17061E   26196.73179303  .00000031  00000+0  40632-5 0  9994
2 42959  86.3967  13.3123 0002101  90.2644 269.8792 14.34216719458909
IRIDIUM 107             
1 42960U 17061F   26196.75081801  .00000044  00000+0  86823-5 0  9999
2 42960  86.3968  13.3258 0002103  96.7801 263.3634 14.34217284458912
IRIDIUM 132             
1 42961U 17061G   26196.54785681  .00000031  00000+0  40457-5 0  9993
2 42961  86.3966  13.3900 0002173  90.3326 269.8119 14.34216637458880
IRIDIUM 136             
1 42962U 17061H   26196.78887626  .00000034  00000+0  49226-5 0  9998
2 42962  86.3968  13.2960 0002241  89.8597 270.2855 14.34217200458933
IRIDIUM 139             
1 42963U 17061J   26196.72545110  .00000037  00000+0  62794-5 0  9990
2 42963  86.3970  13.3850 0002239  91.6996 268.4457 14.34217163458932
IRIDIUM 125             
1 42964U 17061K   26196.50345967  .00000027  00000+0  26091-5 0  9994
2 42964  86.3970  13.5394 0001659  92.8387 267.2999 14.34217408458918
IRIDIUM 135             
1 43070U 17083A   26196.75665729  .00000079  00000+0  20990-4 0  9993
2 43070  86.3987 310.0732 0002200  93.9957 266.1490 14.34218150448248
